MERIDIAN 10             
1 52145U 22030A   26165.97630447  .00000192  00000+0  00000+0 0  9994
2 52145  62.6766 141.0389 6783185 272.8558  17.6523  2.00613779 30982
OMNI-L1                 
1 52157U 22033A   26166.49177549  .00001694  00000+0  21624-3 0  9994
2 52157  97.8397 245.7019 0003861 295.8762  64.2054 14.82743352227203
ENMAP                   
1 52159U 22033C   26166.46952623  .00000637  00000+0  10224-3 0  9997
2 52159  97.9800 248.7435 0001382  85.3003 274.8364 14.74987623226402
ARCSAT-1                
1 52161U 22033E   26166.51531463  .00009622  00000+0  15261-3 0  9990
2 52161  97.2757 258.7631 0004777 184.6257 175.4953 15.53583139235449
GLOBAL-18               
1 52196U 22034B   26166.50972073  .00018773  00000+0  38343-3 0  9997
2 52196  52.9819 264.6573 0003085 272.3362  87.7291 15.46226813236703
GAOFEN-3 03             
1 52200U 22035A   26166.49522223  .00000249  00000+0  88845-4 0  9992
2 52200  98.4055 175.1001 0001258 100.6335 259.4996 14.42215815220608
DAQI-1                  
1 52257U 22039A   26166.49793531  .00000159  00000+0  44638-4 0  9992
2 52257  98.1484 105.3850 0002238 263.8742  96.2202 14.57676254221694
BRO-6                   
1 52422U 22047AE  26166.52430514  .00029520  00000+0  51863-3 0  9998
2 52422  97.3406 257.5471 0005198  84.7914 275.3931 15.50453779230891
JILIN-1 GAOFEN 3D27     
1 52444U 22048B   26166.24927365  .00103768  00000+0  69540-3 0  9995
2 52444  97.5721 280.0085 0001066  39.2094 320.9247 15.74946605229170
JILIN-1 GAOFEN 3D28     
1 52445U 22048C   26166.50595475  .00130124  00000+0  76059-3 0  9997
2 52445  97.5657 280.4318 0000692 186.1562 173.9695 15.77995660229269
VIGORIDE-3              
1 52760U 22057AE  26166.38217676  .00004621  00000+0  17575-3 0  9997
2 52760  97.6603 306.3082 0009520 125.9425 234.2697 15.27263237224884
ION SCV-006             
1 52761U 22057AF  26166.35190972  .00010583  00000+0  22317-3 0  9998
2 52761  97.6096 314.8855 0018330 119.8899 240.4173 15.45249861225830
SHERPA-AC1              
1 52763U 22057AH  26166.37339220  .00006127  00000+0  17574-3 0  9991
2 52763  97.6682 315.5236 0008942  98.9181 261.3074 15.36240726225421
OMNI-L2                 
1 52771U 22057AR  26166.43386637  .00001189  00000+0  15828-3 0  9994
2 52771  97.4717 228.9101 0005934 343.2189  16.8828 14.81366447220138
STEP CUBE LAB-II        
1 52897U 22065D   26166.49482060  .00000711  00000+0  14711-3 0  9995
2 52897  98.2218 310.4010 0009407  37.4780 322.7076 14.63301459211255
RANDEV                  
1 52898U 22065E   26166.49634464  .00000892  00000+0  18061-3 0  9995
2 52898  98.2203 310.7535 0008794  37.9207 322.2613 14.63689313211005
SNUGLITE-II             
1 52899U 22065F   26166.39111219  .00000790  00000+0  15866-3 0  9990
2 52899  98.2199 311.2248 0008115  38.1819 321.9957 14.64344637210730
MIMAN                   
1 52900U 22065G   26166.33710869  .00000415  00000+0  92648-4 0  9991
2 52900  98.2257 308.8287 0008340  40.1626 320.0190 14.61841904210175
STARLINK-4362           
1 53043U 22077A   26166.47125427 -.00001383  00000+0 -91852-4 0  9991
2 53043  97.3572 345.4971 0002402  83.6215 276.5286 15.05655136215625
LARES-2                 
1 53105U 22080A   26164.25617662 -.00000017  00000+0  00000+0 0  9997
2 53105  70.1627 306.6773 0005398 335.8266  24.1972  6.38965105 91412
GREENCUBE (IO-117)      
1 53109U 22080E   26164.29338770 -.00000003  00000+0  00000+0 0  9990
2 53109  70.1444 299.5995 0008910 290.4576  69.5127  6.42583230 91811
STARLINK-4410           
1 53204U 22084R   26166.50002315  .00117666  00000+0  39837-2 0  9995
2 53204  97.6007 227.5478 0001443  79.7135 208.2330 15.30098321  5818
COSMOS 2558             
1 53323U 22089A   26166.49450463  .00096113  00000+0  64722-3 0  9996
2 53323  97.2262 270.4898 0000991 231.2409 128.8767 15.74858788217565
TECMS                   
1 53346U 22090A   26166.51470663  .00003320  00000+0  15101-3 0  9995
2 53346  97.3140 234.6708 0003280 180.5400 179.5833 15.21397204214555
DONGPO 02               
1 53452U 22098J   26164.99966420  .00113495  00000+0  78991-3 0  9993
2 53452  97.5515 295.9132 0002034 282.6019  77.5017 15.74035042214297
DONGPO 01               
1 53453U 22098K   26166.51358652  .00080566  00000+0  60929-3 0  9990
2 53453  97.5586 298.0880 0001756 234.0996 126.0104 15.72179396214493
STARLINK-4400           
1 53468U 22099D   26166.31757470  .00000807  00000+0  59882-4 0  9993
2 53468  97.3556 285.4327 0002040 110.4073 249.7374 15.05646741210666
STARLINK-4621           
1 53676U 22105AE  26166.25388628 -.00000353  00000+0 -20459-4 0  9996
2 53676  97.3588  45.3839 0002271  86.8529 273.2958 15.05650647207915
SHERPA-LTC2             
1 53754U 22107BG  26166.48621244  .00004663  00000+0  24279-3 0  9993
2 53754  53.2349 227.5314 0394004 221.2720 135.7852 14.69697907202296
CENTISPACE-1 S3         
1 53757U 22108A   26166.49765159  .00000408  00000+0  12017-3 0  9992
2 53757  53.5335  62.2454 0009268 350.4849   9.5949 14.61250812201283
