OBJECT_NAME,OBJECT_ID,EPOCH,MEAN_MOTION,ECCENTRICITY,INCLINATION,RA_OF_ASC_NODE,ARG_OF_PERICENTER,MEAN_ANOMALY,EPHEMERIS_TYPE,CLASSIFICATION_TYPE,NORAD_CAT_ID,ELEMENT_SET_NO,REV_AT_EPOCH,BSTAR,MEAN_MOTION_DOT,MEAN_MOTION_DDOT
MERIDIAN 10,2022-030A,2026-06-14T23:25:52.706208,2.00613779,.67831852,62.6766,141.0389,272.8558,17.6523,0,U,52145,999,3098,0,.192E-5,0
OMNI-L1,2022-033A,2026-06-15T11:48:09.402336,14.82743352,.0003861,97.8397,245.7019,295.8762,64.2054,0,U,52157,999,22720,.21624E-3,.1694E-4,0
ENMAP,2022-033C,2026-06-15T11:16:07.066272,14.74987623,.0001382,97.9800,248.7435,85.3003,274.8364,0,U,52159,999,22640,.10224E-3,.637E-5,0
ARCSAT-1,2022-033E,2026-06-15T12:22:03.184032,15.53583139,.0004777,97.2757,258.7631,184.6257,175.4953,0,U,52161,999,23544,.15261E-3,.9622E-4,0
GLOBAL-18,2022-034B,2026-06-15T12:13:59.871072,15.46226813,.0003085,52.9819,264.6573,272.3362,87.7291,0,U,52196,999,23670,.38343E-3,.18773E-3,0
GAOFEN-3 03,2022-035A,2026-06-15T11:53:07.200672,14.42215815,.0001258,98.4055,175.1001,100.6335,259.4996,0,U,52200,999,22060,.88845E-4,.249E-5,0
DAQI-1,2022-039A,2026-06-15T11:57:01.610784,14.57676254,.0002238,98.1484,105.3850,263.8742,96.2202,0,U,52257,999,22169,.44638E-4,.159E-5,0
BRO-6,2022-047AE,2026-06-15T12:34:59.964096,15.50453779,.0005198,97.3406,257.5471,84.7914,275.3931,0,U,52422,999,23089,.51863E-3,.2952E-3,0
JILIN-1 GAOFEN 3D27,2022-048B,2026-06-15T05:58:57.243360,15.74946605,.0001066,97.5721,280.0085,39.2094,320.9247,0,U,52444,999,22917,.6954E-3,.103768E-2,0
JILIN-1 GAOFEN 3D28,2022-048C,2026-06-15T12:08:34.490400,15.77995660,.0000692,97.5657,280.4318,186.1562,173.9695,0,U,52445,999,22926,.76059E-3,.130124E-2,0
VIGORIDE-3,2022-057AE,2026-06-15T09:10:20.072064,15.27263237,.000952,97.6603,306.3082,125.9425,234.2697,0,U,52760,999,22488,.17575E-3,.4621E-4,0
ION SCV-006,2022-057AF,2026-06-15T08:26:44.999808,15.45249861,.001833,97.6096,314.8855,119.8899,240.4173,0,U,52761,999,22583,.22317E-3,.10583E-3,0
SHERPA-AC1,2022-057AH,2026-06-15T08:57:41.086080,15.36240726,.0008942,97.6682,315.5236,98.9181,261.3074,0,U,52763,999,22542,.17574E-3,.6127E-4,0
OMNI-L2,2022-057AR,2026-06-15T10:24:46.054368,14.81366447,.0005934,97.4717,228.9101,343.2189,16.8828,0,U,52771,999,22013,.15828E-3,.1189E-4,0
STEP CUBE LAB-II,2022-065D,2026-06-15T11:52:32.499840,14.63301459,.0009407,98.2218,310.4010,37.4780,322.7076,0,U,52897,999,21125,.14711E-3,.711E-5,0
RANDEV,2022-065E,2026-06-15T11:54:44.176896,14.63689313,.0008794,98.2203,310.7535,37.9207,322.2613,0,U,52898,999,21100,.18061E-3,.892E-5,0
SNUGLITE-II,2022-065F,2026-06-15T09:23:12.093216,14.64344637,.0008115,98.2199,311.2248,38.1819,321.9957,0,U,52899,999,21073,.15866E-3,.79E-5,0
MIMAN,2022-065G,2026-06-15T08:05:26.190816,14.61841904,.000834,98.2257,308.8287,40.1626,320.0190,0,U,52900,999,21017,.92648E-4,.415E-5,0
STARLINK-4362,2022-077A,2026-06-15T11:18:36.368928,15.05655136,.0002402,97.3572,345.4971,83.6215,276.5286,0,U,53043,999,21562,-.91852E-4,-.1383E-4,0
LARES-2,2022-080A,2026-06-13T06:08:53.659968,6.38965105,.0005398,70.1627,306.6773,335.8266,24.1972,0,U,53105,999,9141,0,-.17E-6,0
GREENCUBE (IO-117),2022-080E,2026-06-13T07:02:28.697280,6.42583230,.00089108,70.1444,299.5995,290.4576,69.5127,0,U,53109,999,9181,0,-.3E-7,0
STARLINK-4410,2022-084R,2026-06-15T12:00:02.000160,15.30098321,.0001443,97.6007,227.5478,79.7135,208.2330,0,U,53204,999,581,.39837E-2,.117666E-2,0
COSMOS 2558,2022-089A,2026-06-15T11:52:05.200032,15.74858788,.0000991,97.2262,270.4898,231.2409,128.8767,0,U,53323,999,21756,.64722E-3,.96113E-3,0
TECMS,2022-090A,2026-06-15T12:21:10.652832,15.21397204,.000328,97.3140,234.6708,180.5400,179.5833,0,U,53346,999,21455,.15101E-3,.332E-4,0
DONGPO 02,2022-098J,2026-06-13T23:59:30.986880,15.74035042,.00020347,97.5515,295.9132,282.6019,77.5017,0,U,53452,999,21429,.78990934E-3,.113495E-2,0
DONGPO 01,2022-098K,2026-06-15T12:19:33.875328,15.72179396,.0001756,97.5586,298.0880,234.0996,126.0104,0,U,53453,999,21449,.60929E-3,.80566E-3,0
STARLINK-4400,2022-099D,2026-06-15T07:37:18.454080,15.05646741,.000204,97.3556,285.4327,110.4073,249.7374,0,U,53468,999,21066,.59882E-4,.807E-5,0
STARLINK-4621,2022-105AE,2026-06-15T06:05:35.774592,15.05650647,.0002271,97.3588,45.3839,86.8529,273.2958,0,U,53676,999,20791,-.20459E-4,-.353E-5,0
SHERPA-LTC2,2022-107BG,2026-06-15T11:40:08.754816,14.69697907,.0394004,53.2349,227.5314,221.2720,135.7852,0,U,53754,999,20229,.24279E-3,.4663E-4,0
CENTISPACE-1 S3,2022-108A,2026-06-15T11:56:37.097376,14.61250812,.0009268,53.5335,62.2454,350.4849,9.5949,0,U,53757,999,20128,.12017E-3,.408E-5,0
